0 BREEZE-M R/B
1 37186U 10053B   13282.54011233 -.00000045  00000-0  00000+0 0  4094
2 37186 022.0986 103.7212 6028211 015.0458 002.5924 02.17038516 23676
0 BREEZE-M R/B
1 37186U 10053B   13285.73704812 -.00000014  00000-0  00000+0 0  4108
2 37186 022.1037 103.1250 6027697 016.1101 340.4533 02.17039002 23743
0 BREEZE-M R/B
1 37186U 10053B   13289.58619421 -.00000017  00000-0  00000+0 0  4110
2 37186 022.1089 102.4072 6027195 017.3884 107.9186 02.17039345 23827
0 BREEZE-M R/B
1 37186U 10053B   13292.68872653 -.00000078  00000-0  00000+0 0  4121
2 37186 022.1133 101.8292 6026898 018.4179 012.0386 02.17039333 23894
